{
  "type": "FeatureCollection",
  "features": [
    {
      "type": "Feature",
      "properties": {
        "norad_id": 66454,
        "name": "VIASAT-3 F2",
        "group": "last-30-days",
        "lat": 3.7752965228502418,
        "lon": 67.97700016807747,
        "alt_km": 15014.798606136246,
        "timestamp": "2025-12-14T07:33:18.185458+00:00",
        "meta_object_name": "VIASAT-3 F2",
        "meta_object_id": "2025-261A",
        "meta_epoch": "2025-12-12T22:24:17.478432",
        "meta_mean_motion": 2.09869596,
        "meta_eccentricity": 0.2249784,
        "meta_inclination": 5.3891,
        "meta_ra_of_asc_node": 292.3457,
        "meta_arg_of_pericenter": 185.8732,
        "meta_mean_anomaly": 3.755,
        "meta_ephemeris_type": 0,
        "meta_classification_type": "U",
        "meta_norad_cat_id": 66454,
        "meta_element_set_no": 999,
        "meta_rev_at_epoch": 64,
        "meta_bstar": 0,
        "meta_mean_motion_dot": -8.1e-07,
        "meta_mean_motion_ddot": 0,
        "tle_line1": "1 66454U 25261A   25346.93353563 -.00000081  00000+0  00000+0 0  9996",
        "tle_line2": "2 66454   5.3891 292.3457 2249784 185.8732   3.7550  2.09869596   649"
      },
      "geometry": {
        "type": "Point",
        "coordinates": [
          67.97700016807747,
          3.7752965228502418
        ]
      }
    },
    {
      "type": "Feature",
      "properties": {
        "norad_id": 66455,
        "name": "ATLAS 5 CENTAUR R/B",
        "group": "last-30-days",
        "lat": -0.5540850757927102,
        "lon": 116.63871948528771,
        "alt_km": 12311.71708954818,
        "timestamp": "2025-12-14T07:33:18.185525+00:00",
        "meta_object_name": "ATLAS 5 CENTAUR R/B",
        "meta_object_id": "2025-261B",
        "meta_epoch": "2025-12-13T05:33:47.101824",
        "meta_mean_motion": 2.28260007,
        "meta_eccentricity": 0.23294381,
        "meta_inclination": 6.1451,
        "meta_ra_of_asc_node": 291.5668,
        "meta_arg_of_pericenter": 186.583,
        "meta_mean_anomaly": 189.0602,
        "meta_ephemeris_type": 0,
        "meta_classification_type": "U",
        "meta_norad_cat_id": 66455,
        "meta_element_set_no": 999,
        "meta_rev_at_epoch": 66,
        "meta_bstar": 0,
        "meta_mean_motion_dot": -7.4e-07,
        "meta_mean_motion_ddot": 0,
        "tle_line1": "1 66455U 25261B   25347.23179516 -.00000074  00000+0  00000+0 0  9997",
        "tle_line2": "2 66455   6.1451 291.5668 2329438 186.5830 189.0602  2.28260007   669"
      },
      "geometry": {
        "type": "Point",
        "coordinates": [
          116.63871948528771,
          -0.5540850757927102
        ]
      }
    },
    {
      "type": "Feature",
      "properties": {
        "norad_id": 66456,
        "name": "STARLINK-35643",
        "group": "last-30-days",
        "lat": -41.77358502006652,
        "lon": -44.02193768402378,
        "alt_km": 446.0400954259894,
        "timestamp": "2025-12-14T07:33:18.185544+00:00",
        "meta_object_name": "STARLINK-35643",
        "meta_object_id": "2025-262A",
        "meta_epoch": "2025-12-13T14:52:59.368512",
        "meta_mean_motion": 15.40714003,
        "meta_eccentricity": 0.00017966,
        "meta_inclination": 43.0021,
        "meta_ra_of_asc_node": 66.5409,
        "meta_arg_of_pericenter": 279.4358,
        "meta_mean_anomaly": 80.6295,
        "meta_ephemeris_type": 0,
        "meta_classification_type": "U",
        "meta_norad_cat_id": 66456,
        "meta_element_set_no": 999,
        "meta_rev_at_epoch": 569,
        "meta_bstar": 0.0011179917,
        "meta_mean_motion_dot": 0.00046706,
        "meta_mean_motion_ddot": 0,
        "tle_line1": "1 66456U 25262A   25347.62013158  .00046706  00000+0  11180-2 0  9996",
        "tle_line2": "2 66456  43.0021  66.5409 0001796 279.4358  80.6295 15.40714003  5695"
      },
      "geometry": {
        "type": "Point",
        "coordinates": [
          -44.02193768402378,
          -41.77358502006652
        ]
      }
    },
    {
      "type": "Feature",
      "properties": {
        "norad_id": 66457,
        "name": "STARLINK-35466",
        "group": "last-30-days",
        "lat": -41.70393755491876,
        "lon": -10.49963111396231,
        "alt_km": 445.9348712551582,
        "timestamp": "2025-12-14T07:33:18.185558+00:00",
        "meta_object_name": "STARLINK-35466",
        "meta_object_id": "2025-262B",
        "meta_epoch": "2025-12-13T14:46:32.081376",
        "meta_mean_motion": 15.40720102,
        "meta_eccentricity": 0.00020791,
        "meta_inclination": 43.0026,
        "meta_ra_of_asc_node": 66.5038,
        "meta_arg_of_pericenter": 242.9232,
        "meta_mean_anomaly": 117.1413,
        "meta_ephemeris_type": 0,
        "meta_classification_type": "U",
        "meta_norad_cat_id": 66457,
        "meta_element_set_no": 999,
        "meta_rev_at_epoch": 569,
        "meta_bstar": 0.0012351534,
        "meta_mean_motion_dot": 0.00051678,
        "meta_mean_motion_ddot": 0,
        "tle_line1": "1 66457U 25262B   25347.61564909  .00051678  00000+0  12352-2 0  9997",
        "tle_line2": "2 66457  43.0026  66.5038 0002079 242.9232 117.1413 15.40720102  5695"
      },
      "geometry": {
        "type": "Point",
        "coordinates": [
          -10.49963111396231,
          -41.70393755491876
        ]
      }
    },
    {
      "type": "Feature",
      "properties": {
        "norad_id": 66458,
        "name": "STARLINK-35684",
        "group": "last-30-days",
        "lat": -42.98208969041784,
        "lon": -27.143389995799264,
        "alt_km": 445.14992484867435,
        "timestamp": "2025-12-14T07:33:18.185569+00:00",
        "meta_object_name": "STARLINK-35684",
        "meta_object_id": "2025-262C",
        "meta_epoch": "2025-12-13T13:16:24.255264",
        "meta_mean_motion": 15.40740488,
        "meta_eccentricity": 0.00028692,
        "meta_inclination": 43.0029,
        "meta_ra_of_asc_node": 66.896,
        "meta_arg_of_pericenter": 271.5768,
        "meta_mean_anomaly": 88.476,
        "meta_ephemeris_type": 0,
        "meta_classification_type": "U",
        "meta_norad_cat_id": 66458,
        "meta_element_set_no": 999,
        "meta_rev_at_epoch": 568,
        "meta_bstar": 0.0011065006,
        "meta_mean_motion_dot": 0.00046264,
        "meta_mean_motion_ddot": 0,
        "tle_line1": "1 66458U 25262C   25347.55305851  .00046264  00000+0  11065-2 0  9995",
        "tle_line2": "2 66458  43.0029  66.8960 0002869 271.5768  88.4760 15.40740488  5688"
      },
      "geometry": {
        "type": "Point",
        "coordinates": [
          -27.143389995799264,
          -42.98208969041784
        ]
      }
    },
    {
      "type": "Feature",
      "properties": {
        "norad_id": 66459,
        "name": "STARLINK-35449",
        "group": "last-30-days",
        "lat": -38.15420809406743,
        "lon": 4.98330487222318,
        "alt_km": 445.82003341263317,
        "timestamp": "2025-12-14T07:33:18.185585+00:00",
        "meta_object_name": "STARLINK-35449",
        "meta_object_id": "2025-262D",
        "meta_epoch": "2025-12-13T14:43:18.694848",
        "meta_mean_motion": 15.40713686,
        "meta_eccentricity": 0.00016869,
        "meta_inclination": 43.0023,
        "meta_ra_of_asc_node": 66.486,
        "meta_arg_of_pericenter": 277.6533,
        "meta_mean_anomaly": 82.4132,
        "meta_ephemeris_type": 0,
        "meta_classification_type": "U",
        "meta_norad_cat_id": 66459,
        "meta_element_set_no": 999,
        "meta_rev_at_epoch": 569,
        "meta_bstar": 0.0013253955,
        "meta_mean_motion_dot": 0.00055491,
        "meta_mean_motion_ddot": 0,
        "tle_line1": "1 66459U 25262D   25347.61341082  .00055491  00000+0  13254-2 0  9993",
        "tle_line2": "2 66459  43.0023  66.4860 0001686 277.6533  82.4132 15.40713686  5699"
      },
      "geometry": {
        "type": "Point",
        "coordinates": [
          4.98330487222318,
          -38.15420809406743
        ]
      }
    },
    {
      "type": "Feature",
      "properties": {
        "norad_id": 66460,
        "name": "STARLINK-35424",
        "group": "last-30-days",
        "lat": -32.71425297808962,
        "lon": 18.837837825897978,
        "alt_km": 445.7472860883281,
        "timestamp": "2025-12-14T07:33:18.185599+00:00",
        "meta_object_name": "STARLINK-35424",
        "meta_object_id": "2025-262E",
        "meta_epoch": "2025-12-13T14:40:05.061216",
        "meta_mean_motion": 15.40748545,
        "meta_eccentricity": 0.00016396,
        "meta_inclination": 43.0002,
        "meta_ra_of_asc_node": 66.4695,
        "meta_arg_of_pericenter": 257.4361,
        "meta_mean_anomaly": 102.6313,
        "meta_ephemeris_type": 0,
        "meta_classification_type": "U",
        "meta_norad_cat_id": 66460,
        "meta_element_set_no": 999,
        "meta_rev_at_epoch": 569,
        "meta_bstar": 0.0014074495,
        "meta_mean_motion_dot": 0.00059041,
        "meta_mean_motion_ddot": 0,
        "tle_line1": "1 66460U 25262E   25347.61116969  .00059041  00000+0  14074-2 0  9995",
        "tle_line2": "2 66460  43.0002  66.4695 0001639 257.4361 102.6313 15.40748545  5695"
      },
      "geometry": {
        "type": "Point",
        "coordinates": [
          18.837837825897978,
          -32.71425297808962
        ]
      }
    }
  ]
}